,ltable_Name,ltable_Phone,ltable_Zipcode,ltable_State,ltable_City,ltable_Address,ltable_Delivery,ltable_Takeout,ltable_Outdoor_seating,rtable_Name,rtable_Phone,rtable_Zipcode,rtable_State,rtable_City,rtable_Address,rtable_Delivery,rtable_Takeout,rtable_Outdoor_seating,Label,predicted,restaurant_name,phone,zipcode,state,city,address,delivery,takeout,outdoor_seating
512,McSorley’s Old Ale House,(212) 473-9148,10003,NY,New York,15 E 7th St,0,0,0,McSorley's Old Ale House,(212) 473-9148,10003,NY,New York,15 E 7th Street,0,0,0,1,1,,,,,,,,,
4,El Techo,(415) 550-6970,94110,CA,San Francisco,2518 Mission St,0,1,1,El Techo de Lolinda,(415) 550-6970,94110,CA,San Francisco,2518 Mission District Street,0,0,1,1,1,,,,,,,,,
1030,Phat Philly,(415) 550-7428,94110,CA,San Francisco,3388 24th St,1,1,1,Phat Philly Cheesesteaks,(415) 550-7428,94110,CA,San Francisco,3388 24th Street,0,1,1,1,1,,,,,,,,,
1031,Samovar Tea Lounge,(415) 227-9400,94103,CA,San Francisco,730 Howard St,1,1,1,Samovar Tea Lounge,(415) 227-9400,94103,CA,San Francisco,730 Howard Street,0,1,1,1,1,,,,,,,,,
8,Bean Bag Cafe,(415) 563-3634,94117,CA,San Francisco,601 Divisadero St,0,1,1,Bean Bag Cafe,(415) 563-3634,94117,CA,San Francisco,601 Divisadero Street,0,0,1,1,1,,,,,,,,,
521,Yuzuki Japanese Eatery,(415) 556-9898,94110,CA,San Francisco,598 Guerrero St,0,0,0,Yuzuki Japanese Eatery,(415) 556-9898,94110,CA,San Francisco,598 Guerrero Street,0,1,0,1,1,,,,,,,,,
522,Pearl Oyster Bar,(212) 691-8211,10014,NY,New York,18 Cornelia St,0,1,0,Pearl Oyster Bar,(212) 691-8211,10014,NY,New York,18 Cornelia Street,0,0,0,1,1,,,,,,,,,
523,Bricks,(312) 255-0851,60614,IL,Chicago,1909 N Lincoln Ave,1,1,0,Bricks,(312) 255-0851,60614,IL,Chicago,1909 N Lincoln Avenue,1,1,0,1,1,,,,,,,,,
12,Summer House,(773) 634-4100,60614,IL,Chicago,1954 N Halsted St,0,1,1,Summer House Santa Monica,(773) 634-4100,60614,IL,Chicago,1954 N Halsted Street,0,1,1,1,1,,,,,,,,,
955,Devon Seafood Grill,(312) 440-8660,60611,IL,Chicago,39 E Chicago Ave,0,1,0,Devon Seafood Grill,(312) 440-8660,60611,IL,Chicago,39 E Chicago Avenue,0,1,1,1,1,,,,,,,,,
15,Pancho Villa Taqueria,(415) 864-8840,94103,CA,San Francisco,3071 16th St,0,1,0,Pancho Villa Taqueria,(415) 864-8840,94103,CA,San Francisco,3071 16th Street,0,1,0,1,1,,,,,,,,,
16,Nishino,(206) 322-5800,98112,WA,Seattle,3130 E Madison St,0,1,0,Nishino,(206) 322-5800,98112,WA,Seattle,3130 East Madison Street,0,1,0,1,1,,,,,,,,,
529,Blue Bottle Coffee,(510) 653-3394,94102,CA,San Francisco,315 Linden St,0,1,1,Blue Bottle Coffee Kiosk,(415) 252-7535,94102,CA,San Francisco,315 Linden Street,0,0,1,1,1,,,,,,,,,
19,Friends Sushi,(312) 787-8998,60611,IL,Chicago,710 N Rush St,1,1,1,Friends Sushi,(312) 787-8998,60611,IL,Chicago,710 North Rush Street,0,1,1,1,1,,,,,,,,,
1044,Il Mulino,(212) 673-3783,10012,NY,New York,86 W 3rd St,1,1,0,Il Mulino,(212) 673-3783,10012,NY,New York,86 West 3rd Street,0,0,0,1,1,,,,,,,,,
716,Stan’s Donuts & Coffee,(773) 360-7386,60622,IL,Chicago,1560 N Damen Ave,0,1,0,Stan's Donuts,(773) 360-7386,60622,IL,Chicago,1560 N. Damen Avenue,1,1,0,1,1,,,,,,,,,
1046,Tanta,(312) 222-9700,60654,IL,Chicago,118 W Grand Ave,0,0,1,Tanta,(312) 222-9700,60654,IL,Chicago,118 West Grand Avenue,0,0,0,1,1,,,,,,,,,
1047,Green Street Smoked Meats,(312) 754-0431,60607,IL,Chicago,112 N Green St,1,1,1,Green Street Smoked Meats,(312) 754-0434,60607,IL,Chicago,112 N Green Street,0,1,0,1,1,,,,,,,,,
516,Four Barrel Coffee,(415) 252-0800,94103,CA,San Francisco,375 Valencia St,0,1,1,Four Barrel,(415) 252-0800,94103,CA,San Francisco,375 Valencia Street,0,1,1,1,1,,,,,,,,,
1050,Tango Sur,(773) 477-5466,60613,IL,Chicago,3763 N Southport Ave,0,1,1,Tango Sur,(773) 477-5466,60613,IL,Chicago,3763 North Southport Avenue,0,1,1,1,1,,,,,,,,,
541,Nico Osteria,(312) 994-7100,60611,IL,Chicago,1015 N Rush St,0,0,1,Nico Osteria - Thomson Hotels Chicago,(312) 994-7100,60611,IL,Chicago,1015 N. Rush Street,0,0,1,1,1,,,,,,,,,
1054,The Purple Pig,(312) 464-1744,60611,IL,Chicago,500 N Michigan Ave,0,0,1,The Purple Pig,(312) 464-1744,60611,IL,Chicago,500 N Michigan Avenue,0,1,1,1,1,,,,,,,,,
1040,Sushi Zone,(415) 621-1114,94103,CA,San Francisco,1815 Market St,0,0,0,Sushi Zone,(415) 621-1114,94103,CA,San Francisco,1815 Market Street,0,0,0,1,1,,,,,,,,,
34,Jim’s Original Hot Dog,(312) 733-7820,60607,IL,Chicago,1250 S Union Ave,0,1,0,Jim's Original,(312) 733-7820,60607,IL,Chicago,1250 S Union Avenue,0,1,0,1,1,,,,,,,,,
39,Balzem,(646) 837-7033,10012,NY,New York,202 Mott St,1,1,1,Balzem,(646) 837-7033,10012,NY,New York,202 Mott Street,1,1,1,1,1,,,,,,,,,
948,Osteria La Madia,(312) 329-0400,60654,IL,Chicago,59 W Grand Ave,1,1,0,Osteria La Madia,(312) 329-0400,60654,IL,Chicago,59 W Grand Avenue,0,1,0,1,1,,,,,,,,,
41,Macku Sushi,(773) 880-8012,60614,IL,Chicago,2239 N Clybourn Ave,1,1,0,Macku Sushi,(773) 880-8012,60614,IL,Chicago,2239 N Clybourn Avenue,1,1,0,1,1,,,,,,,,,
555,Swan Oyster Depot,(415) 673-1101,94109,CA,San Francisco,1517 Polk St,0,1,0,Swan Oyster Depot,(415) 673-1101,94109,CA,San Francisco,1517 Polk Street,0,1,0,1,1,,,,,,,,,
1069,RL Restaurant,(312) 475-1100,60611,IL,Chicago,115 E Chicago Ave,0,0,1,Ralph Lauren Bar & Grill,(312) 475-1100,60611,IL,Chicago,115 E Chicago Avenue,0,1,1,1,1,,,,,,,,,
46,Macrina Bakery & Cafe,(206) 448-4032,98121,WA,Seattle,2408 1st Ave,0,1,1,Macrina Bakery,(206) 448-4032,98121,WA,Seattle,2408 1st Avenue,0,1,1,1,1,,,,,,,,,
605,Vanessa’s Dumpling House,(212) 625-8008,10002,NY,New York,118A Eldridge St,0,1,0,Vanessa's Dumpling House,(212) 625-8008,10002,NY,New York,118A Eldridge Street,0,1,0,1,1,,,,,,,,,
1072,Chicago Bagel Authority,(773) 248-9606,60614,IL,Chicago,953 W Armitage Ave,1,1,1,Chicago Bagel Authority,(773) 248-9606,60614,IL,Chicago,953 W. Armitage Avenue,1,1,0,1,1,,,,,,,,,
562,Lockdown Bar &  Grill,(773) 451-5625,60622,IL,Chicago,1024 N Western Ave,1,1,1,Lockdown Bar & Grill,(773) 451-5625,60622,IL,Chicago,1024 N. Western Avenue,0,1,1,1,1,,,,,,,,,
51,Davanti Enoteca,(312) 226-5550,60607,IL,Chicago,1359 W Taylor St,0,1,0,Davanti Enoteca,(312) 226-5550,60607,IL,Chicago,1359 W Taylor Street,0,1,0,1,1,,,,,,,,,
52,Cactus Restaurants,(206) 324-4140,98112,WA,Seattle,4220 E Madison St,0,1,1,Cactus,(206) 324-4140,98112,WA,Seattle,4220 East Madison Street,0,1,1,1,1,,,,,,,,,
54,Twin Anchors Restaurant & Tavern,(312) 266-1616,60614,IL,Chicago,1655 N Sedgwick St,0,1,1,Twin Anchors,(312) 266-1616,60614,IL,Chicago,1655 N. Sedgwick Street,0,1,1,1,1,,,,,,,,,
56,Sultan’s Market,(773) 235-3072,60647,IL,Chicago,2057 W North Ave,1,1,1,Sultan's Market,(773) 235-3072,60647,IL,Chicago,2057 W North Avenue,1,1,0,1,1,,,,,,,,,
706,Floriole Cafe & Bakery,(773) 883-1313,60614,IL,Chicago,1220 W Webster Ave,0,1,1,Floriole Cafe & Bakery,(773) 883-1313,60614,IL,Chicago,1220 W Webster Avenue,0,1,1,1,1,,,,,,,,,
60,Chefs Club by Food & Wine,(212) 941-1100,10012,NY,New York,275 Mulberry St,0,0,0,Chef's Club By Food and Wine,(212) 941-1100,10012,NY,New York,275 Mulberry Street,0,0,0,1,1,,,,,,,,,
61,Antique Taco,(773) 687-8697,60622,IL,Chicago,1360 N Milwaukee Ave,0,1,1,Antique Taco,(773) 687-8697,60622,IL,Chicago,1360 N. Milwaukee Avenue,0,1,0,1,1,,,,,,,,,
62,Little Star Pizza,(415) 551-7827,94103,CA,San Francisco,400 Valencia St,0,1,0,Little Star Pizza,(415) 551-7827,94103,CA,San Francisco,400 Valencia Street,0,1,0,1,1,,,,,,,,,
64,Acquerello,(415) 567-5432,94109,CA,San Francisco,1722 Sacramento St,0,0,0,Acquerello,(415) 567-5432,94109,CA,San Francisco,1722 Sacramento Street,0,0,0,1,1,,,,,,,,,
66,Anchor Oyster Bar,(415) 431-3990,94114,CA,San Francisco,579 Castro St,0,1,0,Anchor Oyster Bar,(415) 431-3990,94114,CA,San Francisco,579 Castro Street,0,1,1,1,1,,,,,,,,,
950,Skillet Capitol Hill,(206) 512-2001,98122,WA,Seattle,1400 E Union St,0,1,1,Skillet Diner,(206) 512-2001,98122,WA,Seattle,1400 East Union Street,0,1,1,1,1,,,,,,,,,
70,Riccardo Trattoria,(773) 549-0038,60614,IL,Chicago,2119 N Clark St,0,1,0,Riccardo Trattoria,(773) 549-0038,60614,IL,Chicago,2119 N. Clark Street,0,1,0,1,1,,,,,,,,,
583,Strip House,(212) 328-0000,10003,NY,New York,13 E 12th St,0,0,0,Strip House,(212) 328-0000,10003,NY,New York,13 E 12th Street,0,0,0,1,1,,,,,,,,,
584,Udupi Palace,(415) 970-8000,94110,CA,San Francisco,1007 Valencia St,1,1,0,Udupi Palace,(415) 970-8000,94110,CA,San Francisco,1007 Valencia Street,0,1,0,1,1,,,,,,,,,
1097,Kinzie Chophouse,(312) 822-0191,60654,IL,Chicago,400 N Wells St,1,1,1,Kinzie Chophouse,(312) 822-0191,60654,IL,Chicago,400 N Wells Street,1,1,1,1,1,,,,,,,,,
76,Le Bernardin,(212) 554-1515,10019,NY,New York,155 W 51st St,0,0,0,Le Bernardin,(212) 554-1515,10019,NY,New York,155 W 51st Street,0,0,0,1,1,,,,,,,,,
610,Capo’s Chicago Pizza,(415) 986-8998,94133,CA,San Francisco,641 Vallejo St,1,1,1,Capo's,(415) 986-8998,94133,CA,San Francisco,641 Vallejo Street,0,1,1,1,1,,,,,,,,,
78,Limón Rotisserie,(415) 821-2134,94110,CA,San Francisco,1001 S Van Ness Ave,0,1,0,Limon Rotisserie,(415) 821-2134,94110,CA,San Francisco,1001 South Van Ness Avenue,0,1,0,1,1,,,,,,,,,
781,Isa Restaurant,(415) 567-9588,94123,CA,San Francisco,3324 Steiner St,0,1,1,Isa,(415) 567-9588,94123,CA,San Francisco,3324 Steiner Street,0,0,0,1,1,,,,,,,,,
921,Benny’s Chop House,(312) 626-2444,60611,IL,Chicago,444 N Wabash Ave,0,1,0,Benny's Chop House,(312) 626-2444,60611,IL,Chicago,444 N. Wabash Avenue,0,1,0,1,1,,,,,,,,,
597,Maison Premiere,(347) 335-0446,11211,NY,Brooklyn,298 Bedford Ave,0,0,1,Maison Premiere,(347) 335-0446,11211,NY,Brooklyn,298 Bedford Avenue,0,0,1,1,1,,,,,,,,,
601,The Crumpet Shop,(206) 682-1598,98101,WA,Seattle,1503 1st Ave,0,1,1,The Crumpet Shop,(206) 682-1598,98101,WA,Seattle,1503 1st Avenue Pike Place Market,0,1,1,1,1,,,,,,,,,
91,The Art of Pizza,(773) 327-5600,60657,IL,Chicago,3033 N Ashland Ave,1,1,0,Art of Pizza,(773) 327-5600,60657,IL,Chicago,3033 North Ashland Avenue,1,1,0,1,1,,,,,,,,,
92,Alibi Room,(206) 623-3180,98101,WA,Seattle,85 Pike St,0,1,0,Alibi Room,(206) 623-3180,98101,WA,Seattle,Pike Place Market,0,1,0,1,1,,,,,,,,,
93,Nopalito,(415) 233-9966,94122,CA,San Francisco,1224 9th Ave,0,1,1,Nopalito,(415) 233-9966,94122,CA,San Francisco,1224 9th Avenue,0,1,1,1,1,,,,,,,,,
609,Maialino,(212) 777-2410,10010,NY,New York,2 Lexington Ave,0,0,0,Maialino At Gramercy Park Hotel,(212) 777-2410,10010,NY,New York,2 Lexington Avenue,0,0,0,1,1,,,,,,,,,
98,Carnivale,(312) 850-5005,60661,IL,Chicago,702 W Fulton Market,0,1,1,Carnivale,(312) 850-5005,60661,IL,Chicago,702 W Fulton Market,0,1,1,1,1,,,,,,,,,
611,The Chicago Diner,(773) 935-6696,60657,IL,Chicago,3411 N Halsted St,0,1,1,The Chicago Diner,(773) 935-6696,60657,IL,Chicago,3411 North Halsted Street,0,1,0,1,1,,,,,,,,,
101,BondSt,(212) 777-2500,10012,NY,New York,6 Bond St,0,0,0,BONDST,(212) 777-2500,10012,NY,New York,6 Bond Street,0,0,0,1,1,,,,,,,,,
103,The Map Room,(773) 252-7636,60647,IL,Chicago,1949 N Hoyne Ave,0,0,0,Map Room,(773) 252-7636,60647,IL,Chicago,1949 N. Hoyne Avenue,0,0,0,1,1,,,,,,,,,
617,Sapori Trattoria,(312) 967-9358,60614,IL,Chicago,2701 N Halsted St,0,1,1,Sapori Trattoria,(773) 832-9999,60614,IL,Chicago,2701 N Halsted Street,0,1,1,1,1,,,,,,,,,
622,Lucali,(718) 858-4086,11231,NY,Brooklyn,575 Henry St,0,1,0,Lucali,(718) 858-4086,11231,NY,Brooklyn,575 Henry Street,0,1,0,1,1,,,,,,,,,
872,Mama’s On Washington Square,(415) 362-6421,94133,CA,San Francisco,1701 Stockton St,0,0,0,Mama's on Washington Square,(415) 362-6421,94133,CA,San Francisco,1701 Stockton Street,0,0,0,1,1,,,,,,,,,
626,Paulie Gee’s,(347) 987-3747,11222,NY,Brooklyn,60 Greenpoint Ave,0,0,0,Paulie Gee's,(347) 987-3747,11222,NY,New York,60 Greenpoint Avenue,0,0,0,1,1,,,,,,,,,
531,Manora’s Thai Cuisine,(415) 861-6224,94103,CA,San Francisco,1600 Folsom St,1,1,0,Manora's Thai,(415) 861-6224,94103,CA,San Francisco,1600 Folsom Street,0,1,0,1,1,,,,,,,,,
116,Siena Tavern,(312) 595-1322,60654,IL,Chicago,51 W Kinzie St,0,1,1,Siena Tavern,(312) 595-1322,60654,IL,Chicago,51 West Kinzie Street,0,1,1,1,1,,,,,,,,,
118,Tru,(312) 202-0001,60611,IL,Chicago,676 N Saint Clair St,0,0,0,Tru,(312) 202-0001,60611,IL,Chicago,676 N. Clair Street,0,1,0,1,1,,,,,,,,,
819,Jardinière,(415) 861-5555,94102,CA,San Francisco,300 Grove St,0,0,0,Jardiniere,(415) 861-5555,94102,CA,San Francisco,300 Grove Street,0,0,0,1,1,,,,,,,,,
632,Amélie,(415) 292-6916,94109,CA,San Francisco,1754 Polk St,0,0,0,Amelie,(415) 292-6916,94109,CA,San Francisco,1754 Polk Street,0,0,0,1,1,,,,,,,,,
121,Mission Pie,(415) 282-1500,94110,CA,San Francisco,2901 Mission St,0,1,0,Mission Pie,(415) 282-1500,94110,CA,San Francisco,2901 Mission District Street,0,1,1,1,1,,,,,,,,,
125,Del Posto,(212) 497-8090,10011,NY,New York,85 10th Ave,0,0,0,Del Posto,(212) 497-8090,10011,NY,New York,85 10th Avenue,0,0,0,1,1,,,,,,,,,
638,Fatso’s Last Stand,(773) 245-3287,60622,IL,Chicago,2258 W Chicago Ave,1,1,1,Fatso's Last Stand,(773) 245-3287,60622,IL,Chicago,2258 W. Chicago Avenue,1,1,1,1,1,,,,,,,,,
127,Joe’s Seafood,(312) 379-5637,60611,IL,Chicago,60 E Grand Ave,1,1,0,Joe's Seafood,(312) 379-5637,60611,IL,Chicago,60 E Grand Avenue,1,1,0,1,1,,,,,,,,,
129,Stella Pastry & Cafe,(415) 986-2914,94133,CA,San Francisco,446 Columbus Ave,0,1,0,Stella Pastry & Cafe,(415) 986-2914,94133,CA,San Francisco,446 Columbus Avenue,0,0,0,1,1,,,,,,,,,
643,Pearl’s Deluxe Burgers,(415) 409-6120,94109,CA,San Francisco,708 Post St,0,1,0,Pearl's Deluxe Burgers,(415) 409-6120,94109,CA,San Francisco,708 Post Street,0,1,0,1,1,,,,,,,,,
1006,Roy’s - Chicago,(312) 787-7599,60654,IL,Chicago,720 N State St,0,0,1,Roy's,(312) 787-7599,60654,IL,Chicago,720 N. State Street,0,1,1,1,1,,,,,,,,,
134,Wasabi,(773) 227-8180,60647,IL,Chicago,2115 N Milwaukee Ave,0,1,1,Wasabi,(773) 227-8180,60647,IL,Chicago,2115 N Milwaukee Avenue,0,1,0,1,1,,,,,,,,,
649,Chicago Pizza And Oven Grinder Company,(773) 248-2570,60614,IL,Chicago,2121 N Clark St,0,1,0,Chicago Pizza & Oven Grinder Company,(773) 248-2570,60614,IL,Chicago,2121 N Clark Street,0,1,0,1,1,,,,,,,,,
141,Fat Rice,(773) 661-9170,60647,IL,Chicago,2957 W Diversey Ave,0,0,1,Fat Rice,(773) 661-9170,60647,IL,Chicago,2957 W Diversey Avenue,0,1,0,1,1,,,,,,,,,
654,Musashi’s,(206) 633-0212,98103,WA,Seattle,1400 N 45th St,0,1,0,Musashi's,(206) 633-0212,98103,WA,Seattle,1400 N 45th Street,0,1,0,1,1,,,,,,,,,
143,Umi Sake House,(206) 374-8717,98121,WA,Seattle,2230 1st Ave,0,1,0,Umi Sake House,(206) 374-8717,98121,WA,Seattle,2230 1st Avenue,0,1,0,1,1,,,,,,,,,
656,Sweet Maple Cafe,(312) 243-8908,60607,IL,Chicago,1339 W Taylor St,0,1,0,Sweet Maple Cafe,(312) 243-8908,60607,IL,Chicago,1339 W. Taylor Street,0,1,0,1,1,,,,,,,,,
658,Aquagrill,(212) 274-0505,10012,NY,New York,210 Spring Street,0,1,1,Aquagrill,(212) 274-0505,10012,NY,New York,210 Spring Street,0,1,1,1,1,,,,,,,,,
789,Native Foods Cafe,(773) 489-8480,60622,IL,Chicago,1484 N Milwaukee Ave,0,1,1,Native Foods Café,(773) 489-8480,60622,IL,Chicago,1484 N Milwaukee Avenue,1,1,1,1,1,,,,,,,,,
661,Zazie,(415) 564-5332,94117,CA,San Francisco,941 Cole St,0,1,1,Zazie,(415) 564-5332,94117,CA,San Francisco,941 Cole Street,0,1,1,1,1,,,,,,,,,
150,Hillstone Restaurant,(212) 689-1090,10010,NY,New York,378 Park Ave S,0,0,0,Hillstone,(212) 689-1090,10010,NY,New York,378 Park Avenue S,0,0,0,1,1,,,,,,,,,
663,Beatrix River North,(312) 284-1377,60654,IL,Chicago,519 North Clark Street,0,1,1,Beatrix,(312) 284-1377,60654,IL,Chicago,519 N Clark Street,0,1,1,1,1,,,,,,,,,
664,Leopold’s,(415) 474-2000,94109,CA,San Francisco,2400 Polk St,0,0,0,Leopold's,(415) 474-2000,94109,CA,San Francisco,2400 Polk Street,0,0,0,1,1,,,,,,,,,
153,Eight AM,(415) 292-4888,94133,CA,San Francisco,1323 Columbus Ave,0,1,1,Eight AM,(415) 292-4888,94133,CA,San Francisco,1323 Columbus Avenue,0,1,1,1,1,,,,,,,,,
666,re:public,(206) 467-5300,98109,WA,Seattle,429 Westlake Ave N,0,1,1,Re:public Restaurant & Bar,(206) 467-5300,98109,WA,Seattle,429 Westlake Avenue North,0,1,1,1,1,,,,,,,,,
155,Clinton Street Baking Company,(646) 602-6263,10002,NY,New York,4 Clinton St,1,1,0,Clinton Street Baking Company,(646) 602-6263,10002,NY,New York,4 Clinton Street,1,1,0,1,1,,,,,,,,,
156,Banh Mi Saigon,(212) 941-1541,10013,NY,New York,198 Grand St,1,1,0,Banh Mi Saigon,(212) 941-1541,10013,NY,New York,198 Grand Street,1,1,0,1,1,,,,,,,,,
157,Buvette,(212) 255-3590,10014,NY,New York,42 Grove St,0,0,1,Buvette,(212) 255-3590,10014,NY,New York,42 Grove Street,0,0,0,1,1,,,,,,,,,
160,Pylos,(212) 473-0220,10009,NY,New York,128 E 7th St,0,1,0,Pylos,(212) 473-0220,10009,NY,New York,128 E 7th Street,0,1,0,1,1,,,,,,,,,
674,The Wormhole Coffee,(773) 661-2468,60622,IL,Chicago,1462 N Milwaukee Ave,0,1,1,The Wormhole Coffee,(773) 661-2468,60622,IL,Chicago,1462 N. Milwaukee Avenue,0,1,1,1,1,,,,,,,,,
678,Mindy’s Hot Chocolate,(773) 489-1747,60647,IL,Chicago,1747 N Damen Ave,0,1,0,Mindy's Hot Chocolate,(773) 489-1747,60647,IL,Chicago,1747 N Damen Avenue,0,1,0,1,1,,,,,,,,,
167,Dynamo Donut & Coffee,(415) 920-1978,94110,CA,San Francisco,2760 24th St,0,1,1,Dynamo Donuts & Coffee,(415) 920-1978,94110,CA,San Francisco,2760 24th Street,0,1,0,1,1,,,,,,,,,
169,Stumptown Coffee Roasters,(206) 323-1544,98122,WA,Seattle,1115 12th Ave,0,1,1,Stumptown Coffee Roasters,(206) 323-1544,98122,WA,Seattle,1115 12th Avenue,0,0,0,1,1,,,,,,,,,
171,LYFE Kitchen,(312) 836-5933,60654,IL,Chicago,413 North Clark St,0,1,1,Lyfe Kitchen,(312) 836-5933,60654,IL,Chicago,419 North Clark Street,0,1,1,1,1,,,,,,,,,
685,Cafe Golo,(415) 673-4656,94123,CA,San Francisco,1602 Lombard St,0,1,0,Cafe Golo,(415) 673-4656,94123,CA,San Francisco,1602 Lombard Street,0,1,0,1,1,,,,,,,,,
687,La Mediterranee,(415) 921-2956,94115,CA,San Francisco,2210 Fillmore St,1,1,1,La Mediterranee,(415) 921-2956,94115,CA,San Francisco,2210 Fillmore Street,1,1,1,1,1,,,,,,,,,
690,The Monk’s Kettle,(415) 865-9523,94103,CA,San Francisco,3141 16th St,0,1,1,Monk's Kettle,(415) 865-9523,94103,CA,San Francisco,3141 16th Street,0,0,1,1,1,,,,,,,,,
179,Perennial Virant,(312) 981-7070,60614,IL,Chicago,1800 N Lincoln Ave,0,1,1,Perennial Virant - Hotel Lincoln,(312) 981-7070,60614,IL,Chicago,1800 N Lincoln Avenue,0,0,1,1,1,,,,,,,,,
181,1760,(415) 359-1212,94109,CA,San Francisco,1760 Polk St,0,0,0,1760,(415) 359-1212,94109,CA,San Francisco,1760 Polk Street,0,0,0,1,1,,,,,,,,,
696,Mandalay,(415) 386-3896,94118,CA,San Francisco,4348 California St,0,1,0,Mandalay,(415) 386-3895,94118,CA,San Francisco,4348 California Street,0,1,0,1,1,,,,,,,,,
1063,Fino Ristorante & Bar,(415) 928-2080,94109,CA,San Francisco,624 Post St,0,0,0,Fino,(415) 928-2080,94109,CA,San Francisco,624 Post Street,0,0,0,1,1,,,,,,,,,
187,Alta,(212) 505-7777,10011,NY,New York,64 W 10th St,0,0,0,Alta,(212) 505-7777,10011,NY,New York,64 W 10th Street,0,0,0,1,1,,,,,,,,,
700,Delfina,(415) 552-4055,94110,CA,San Francisco,3621 18th St,0,1,0,Delfina,(415) 552-4055,94110,CA,San Francisco,3621 18th Street,0,1,1,1,1,,,,,,,,,
995,Eleven Madison Park,(212) 889-0905,10010,NY,New York,11 Madison Ave,0,0,0,Eleven Madison Park,(212) 889-0905,10010,NY,New York,11 Madison Avenue,0,0,0,1,1,,,,,,,,,
704,The Saint,(206) 323-9922,98122,WA,Seattle,1416 E Olive Way,0,1,0,The Saint,(206) 323-9922,98122,WA,Seattle,1416 East Olive Way,0,0,0,1,1,,,,,,,,,
193,Geja’s Cafe,(773) 281-9101,60614,IL,Chicago,340 W Armitage Ave,1,1,0,Geja's Cafe,(773) 281-9101,60614,IL,Chicago,340 W Armitage Avenue,0,1,0,1,1,,,,,,,,,
194,Blind Tiger Ale House,(212) 462-4682,10014,NY,New York,281 Bleecker St,0,0,0,Blind Tiger,(212) 462-4682,10014,NY,New York,281 Bleecker Street,0,1,0,1,1,,,,,,,,,
707,Blue Hill,(212) 539-1776,10011,NY,New York,75 Washington Pl,0,0,0,Blue Hill,(212) 539-1776,10011,NY,New York,75 Washington Place,0,0,0,1,1,,,,,,,,,
197,Chez Maman,(415) 655-9542,94107,CA,San Francisco,1401 18th St,0,1,1,Chez Maman,(415) 824-7166,94107,CA,San Francisco,1401 18th Street,0,1,1,1,1,,,,,,,,,
201,Maneki,(206) 622-2631,98104,WA,Seattle,304 6th Ave S,0,1,0,Maneki Restaurant,(206) 622-2631,98104,WA,Seattle,304 6th Avenue South,0,1,0,1,1,,,,,,,,,
204,Toro Sushi,(773) 348-7255,60614,IL,Chicago,2546 N Clark St,0,1,0,Toro Sushi,(773) 348-4877,60614,IL,Chicago,2546 N Clark Street,1,1,0,1,1,,,,,,,,,
546,Ada Street,(773) 697-7069,60642,IL,Chicago,1664 N Ada St,0,0,1,Ada Street,(773) 697-7069,60642,IL,Chicago,1664 N Ada Street,0,0,1,1,1,,,,,,,,,
208,Luke’s Lobster,(212) 387-8487,10009,NY,New York,93 E 7th St,0,1,0,Luke's Lobster,(212) 387-8487,10009,NY,New York,93 E 7th Street,1,1,0,1,1,,,,,,,,,
722,Murray’s Cheese Bar,(646) 476-8882,10014,NY,New York,264 Bleecker St,0,1,0,Murray's Cheese Bar,(646) 476-8882,10014,NY,New York,264 Bleecker Street,0,1,0,1,1,,,,,,,,,
212,Le Panier French Bakery,(206) 441-3669,98101,WA,Seattle,1902 Pike Pl,1,1,0,Le Panier,(206) 441-3669,98101,WA,Seattle,Pike Place Market,0,1,0,1,1,,,,,,,,,
1081,Bow Truss Coffee Roasters River North,(312) 222-1306,60654,IL,Chicago,406 N Wells St,0,1,0,Bow Truss Coffee Roasters,(312) 222-1306,60654,IL,Chicago,406 North Wells Street,0,1,0,1,1,,,,,,,,,
1064,La Maison du Macaron,(212) 243-2757,10011,NY,New York,132 W 23rd St,0,1,0,La Maison du Macaron,(212) 243-2757,10011,NY,New York,132 W 23rd Street,1,1,0,1,1,,,,,,,,,
216,Momofuku Ko,(212) 500-0831,10003,NY,New York,8 Extra Pl,0,0,0,Momofuku Ko,(212) 203-8095,10003,NY,New York,8 Extra Place,0,0,0,1,1,,,,,,,,,
729,Pork Store Cafe,(415) 864-6981,94117,CA,San Francisco,1451 Haight St,0,1,0,Pork Store Cafe,(415) 864-6981,94117,CA,San Francisco,1451 Haight Street,0,1,0,1,1,,,,,,,,,
219,Lovejoy’s Tea Room,(415) 648-5895,94114,CA,San Francisco,1351 Church St,0,0,0,Lovejoy's Antiques & Tea Room,(415) 648-5895,94114,CA,San Francisco,1351 Church Street,0,0,0,1,1,,,,,,,,,
991,Lavash,(415) 664-5555,94122,CA,San Francisco,511 Irving St,0,1,0,Lavash,(415) 664-5555,94122,CA,San Francisco,511 Irving Street,0,0,0,1,1,,,,,,,,,
735,Jasmine Garden,(415) 861-2682,94114,CA,San Francisco,708 14th St,0,1,0,Jasmine Garden,(415) 861-2682,94114,CA,San Francisco,708 14th Street,0,0,0,1,1,,,,,,,,,
720,Buddakan,(212) 989-6699,10011,NY,New York,75 9th Ave,0,0,0,Buddakan,(212) 989-6699,10011,NY,New York,75 9th Avenue,0,0,0,1,1,,,,,,,,,
231,Scarpetta,(212) 691-0555,10014,NY,New York,355 W 14th St,0,0,1,Scarpetta,(212) 691-0555,10014,NY,New York,355 W 14th Street,0,1,1,1,1,,,,,,,,,
747,Roka Akor - Chicago,(312) 477-7652,60654,IL,Chicago,456 N Clark St,0,1,1,Roka Akor,(312) 477-7652,60654,IL,Chicago,456 North Clark Street,0,1,1,1,1,,,,,,,,,
236,Cumin,(773) 342-1414,60622,IL,Chicago,1414 N Milwaukee Ave,1,1,0,Cumin,(773) 342-1414,60622,IL,Chicago,1414 N Milwaukee Avenue,1,1,0,1,1,,,,,,,,,
238,Alinea,(312) 867-0110,60614,IL,Chicago,1723 N Halsted St,0,0,0,Alinea,(312) 867-0110,60614,IL,Chicago,1723 N. Halsted Street,0,0,0,1,1,,,,,,,,,
753,RoRo BBQ & Grill,(206) 954-1100,98103,WA,Seattle,3620 Stone Way N,0,1,1,RoRo BBQ & Grill,(206) 954-1100,98103,WA,Seattle,3620 Stone Way N,0,1,1,1,1,,,,,,,,,
754,Dimo’s Pizza,(773) 525-4580,60657,IL,Chicago,3463 N Clark St,1,1,0,Dimo's Pizza,(773) 525-4580,60657,IL,Chicago,3463 N. Clark Street,1,1,0,1,1,,,,,,,,,
244,Wako Japanese Restaurant,(415) 682-4875,94118,CA,San Francisco,211 Clement St,0,0,0,Wako Japanese,(415) 682-4875,94118,CA,San Francisco,211 Clement Street,0,0,0,1,1,,,,,,,,,
757,Pequod’s Pizzeria,(773) 327-1512,60614,IL,Chicago,2207 N Clybourn Av,1,1,0,Pequod's Pizza,(773) 327-1512,60614,IL,Chicago,2207 N Clybourn Avenue,1,1,0,1,1,,,,,,,,,
760,Pommes Frites,(212) 674-1234,10012,NY,New York,128 Macdougal St,0,1,0,Pommes Frites,(212) 674-1234,10012,NY,New York,128 Macdougal Street,1,1,0,1,1,,,,,,,,,
249,Belly Shack,(773) 252-1414,60647,IL,Chicago,1912 N Western Ave,1,1,0,Belly Shack,(773) 252-1414,60647,IL,Chicago,1912 N Western Avenue,0,1,0,1,1,,,,,,,,,
763,Betty,(206) 352-3773,98109,WA,Seattle,1507 Queen Anne Ave N,0,1,0,Betty,(206) 352-3773,98109,WA,Seattle,1507 Queen Anne Avenue N,0,1,1,1,1,,,,,,,,,
252,Chapeau!,(415) 750-9787,94118,CA,San Francisco,126 Clement St,0,0,0,Chapeau!,(415) 750-9787,94118,CA,San Francisco,126 Clement Street,0,0,0,1,1,,,,,,,,,
253,Katz’s Delicatessen,(212) 254-2246,10002,NY,New York,205 E Houston St,1,1,0,Katz's Delicatessen,(212) 254-2246,10002,NY,New York,205 East Houston Street,0,1,0,1,1,,,,,,,,,
766,Taylor Street Coffee Shop,(415) 567-4031,94102,CA,San Francisco,375 Taylor St,0,1,0,Taylor Street Coffee Shop,(415) 567-4031,94102,CA,San Francisco,375 Taylor Street,0,1,0,1,1,,,,,,,,,
256,Trick Dog,(415) 471-2999,94110,CA,San Francisco,3010 20th St,0,0,0,Trick Dog,(415) 471-2999,94110,CA,San Francisco,3010 20th Street,0,0,0,1,1,,,,,,,,,
260,Smith,(206) 709-1900,98112,WA,Seattle,332 15th Ave E,0,1,0,Smith,(206) 709-1900,98112,WA,Seattle,332 15th Avenue East,0,1,0,1,1,,,,,,,,,
266,The Gage,(312) 372-4243,60603,IL,Chicago,24 S Michigan Ave,0,1,1,The Gage,(312) 372-4243,60603,IL,Chicago,24 S Michigan Avenue,0,1,1,1,1,,,,,,,,,
269,Hog & Rocks,(415) 550-8627,94110,CA,San Francisco,3431 19th St,0,1,1,Hog & Rocks,(415) 550-8627,94110,CA,San Francisco,3431 19th Street,0,1,0,1,1,,,,,,,,,
783,Bar Tartine,(415) 487-1600,94110,CA,San Francisco,561 Valencia St,0,0,0,Bar Tartine,(415) 487-1600,94110,CA,San Francisco,561 Valencia Street,0,0,0,1,1,,,,,,,,,
784,Place Pigalle,(206) 624-1756,98101,WA,Seattle,81 Pike St,0,0,1,Place Pigalle,(206) 624-1756,98101,WA,Seattle,Pike Place Market,0,0,1,1,1,,,,,,,,,
274,Tartine Bakery & Cafe,(415) 487-2600,94110,CA,San Francisco,600 Guerrero St,0,1,1,Tartine Bakery,(415) 487-2600,94110,CA,San Francisco,600 Guerrero Street,0,1,0,1,1,,,,,,,,,
691,O-Toro Sushi,(415) 553-3986,94102,CA,San Francisco,205 Oak St,0,1,0,Otoro Sushi,(415) 553-3986,94102,CA,San Francisco,205 Oak Street,0,1,0,1,1,,,,,,,,,
792,Taqueria Cancún,(415) 252-9560,94110,CA,San Francisco,2288 Mission St,0,1,0,Taqueria Cancun,(415) 252-9560,94110,CA,San Francisco,2288 Mission District Street,0,1,0,1,1,,,,,,,,,
281,Le Colonial,(312) 255-0088,60611,IL,Chicago,937 N Rush St,0,1,1,Le Colonial,(312) 255-0088,60611,IL,Chicago,937 N Rush Street,0,1,1,1,1,,,,,,,,,
798,The Bongo Room,(773) 489-0690,60622,IL,Chicago,1470 N Milwaukee Ave,0,1,0,The Bongo Room,(773) 489-0690,60622,IL,Chicago,1470 N Milwaukee Avenue,0,1,0,1,1,,,,,,,,,
288,Mymy,(415) 800-7466,94109,CA,San Francisco,1500 California St,0,1,1,MyMy Coffee Shop,(415) 800-7466,94109,CA,San Francisco,1500 California Street,0,1,1,1,1,,,,,,,,,
290,Garibaldi’s,(415) 563-8841,94115,CA,San Francisco,347 Presidio Ave,0,1,0,Garibaldi's,(415) 563-8841,94115,CA,San Francisco,347 Presidio Avenue,0,1,0,1,1,,,,,,,,,
879,Meli Cafe &  Juice Bar,(312) 454-0748,60661,IL,Chicago,301 S Halsted St,0,1,0,Meli Cafe,(312) 454-0748,60661,IL,Chicago,301 S Halsted Street,0,1,0,1,1,,,,,,,,,
292,Schwa,(773) 252-1466,60622,IL,Chicago,1466 N Ashland Ave,0,0,0,Schwa,(773) 252-1466,60622,IL,Chicago,1466 N. Ashland Avenue,0,1,0,1,1,,,,,,,,,
293,Macrina Bakery & Cafe,(206) 283-5900,98119,WA,Seattle,615 W McGraw St,0,1,1,Macrina Bakery,(206) 283-5900,98119,WA,Seattle,615 West McGraw Street,0,1,0,1,1,,,,,,,,,
296,New Rebozo Chicago,(312) 202-9141,60611,IL,Chicago,46 E Superior St,1,1,1,New Rebozo Chicago,(312) 202-4191,60611,IL,Chicago,46 E Superior Street,0,1,1,1,1,,,,,,,,,
977,Firecakes,(312) 329-6500,60654,IL,Chicago,68 W Hubbard St,0,1,1,Firecakes,(312) 329-6500,60654,IL,Chicago,68 West Hubbard Street,1,1,1,1,1,,,,,,,,,
812,Basil Thai Restaurant & Bar,(415) 552-8999,94103,CA,San Francisco,1175 Folsom St,0,1,0,Basil Thai Restaurant & Bar,(415) 552-8999,94103,CA,San Francisco,1175 Folsom Street,0,1,0,1,1,,,,,,,,,
818,Mon Ami Gabi,(773) 348-8886,60614,IL,Chicago,2300 N Lincoln Park W,1,1,1,Mon Ami Gabi,(773) 348-8886,60614,IL,Chicago,2300 N. Lincoln Park West,0,1,1,1,1,,,,,,,,,
306,Kiki’s Bistro,(312) 335-5454,60610,IL,Chicago,900 N Franklin St,0,1,1,Kiki's Bistro,(312) 335-5454,60610,IL,Chicago,900 N. Franklin Street,0,0,1,1,1,,,,,,,,,
307,Marination Ma Kai,(206) 328-8226,98126,WA,Seattle,1660 Harbor Ave SW,0,1,1,Marination Ma Kai,(206) 328-8226,98126,WA,Seattle,1660 Harbor Avenue,0,1,1,1,1,,,,,,,,,
820,Xi’an Famous Foods,(212) 786-2068,10003,NY,New York,81 St Marks Pl,0,1,0,Xi'an Famous Foods,(212) 786-2068,10003,NY,New York,81 Saint Marks Place,0,1,0,1,1,,,,,,,,,
824,Oddfellows Cafe & Bar,(206) 325-0807,98122,WA,Seattle,1525 10th Ave,0,1,1,Oddfellows Cafe & Bar,(206) 325-0807,98122,WA,Seattle,1525 10th Avenue,0,0,1,1,1,,,,,,,,,
315,MK Restaurant,(312) 482-9179,60610,IL,Chicago,868 N Franklin St,0,0,0,mk The Restaurant,(312) 482-9179,60610,IL,Chicago,868 N. Franklin Street,0,0,1,1,1,,,,,,,,,
829,Jean-Georges,(212) 299-3900,10023,NY,New York,1 Central Park W,0,0,0,Jean-Georges,(212) 299-3900,10023,NY,New York,1 Central Park West,0,0,0,1,1,,,,,,,,,
830,Albona Ristorante Istriano,(415) 441-1040,94133,CA,San Francisco,545 Francisco St,0,1,0,Albona,(415) 441-1040,94133,CA,San Francisco,545 Francisco Street,0,0,0,1,1,,,,,,,,,
320,Greek Islands Restaurant,(312) 782-9855,60661,IL,Chicago,200 S Halsted St,0,1,1,Greek Islands,(312) 782-9855,60661,IL,Chicago,200 S Halsted Street,0,1,1,1,1,,,,,,,,,
1034,Curry Leaf,(415) 440-4293,94133,CA,San Francisco,943 Columbus Ave,0,1,1,Curry Leaf,(415) 440-4293,94133,CA,San Francisco,943 Columbus Avenue,0,1,0,1,1,,,,,,,,,
1078,Regent Thai Restaurant,(415) 643-5893,94131,CA,San Francisco,1700 Church St,0,1,0,Regent Thai,(415) 643-5893,94131,CA,San Francisco,1700 Church Street,0,0,0,1,1,,,,,,,,,
327,Toulouse Petit,(206) 432-9069,98109,WA,Seattle,601 Queen Anne Ave N,0,0,0,Toulouse Petit,(206) 432-9069,98109,WA,Seattle,601 Queen Anne Avenue N,0,1,0,1,1,,,,,,,,,
840,Original Pancake House,(312) 642-7917,60611,IL,Chicago,22 E Bellevue Pl,0,1,1,The Original Pancake House,(312) 642-7917,60611,IL,Chicago,22 E. Bellevue Place,0,1,0,1,1,,,,,,,,,
329,Mamoun’s Falafel,(212) 674-8685,10012,NY,New York,119 MacDougal St,0,1,1,Mamoun's Falafel,(212) 674-8685,10012,NY,New York,119 MacDougal Street,0,1,1,1,1,,,,,,,,,
842,Mannys Cafeteria and Delicatessen,(312) 939-2855,60607,IL,Chicago,1141 S Jefferson St,1,1,0,Manny's Cafeteria & Delicatessen,(312) 939-2855,60607,IL,Chicago,1141 S Jefferson Street,0,1,0,1,1,,,,,,,,,
332,Skool,(415) 255-8800,94103,CA,San Francisco,1725 Alameda St,0,1,1,Skool,(415) 255-8800,94103,CA,San Francisco,1725 Alameda Street,0,0,1,1,1,,,,,,,,,
334,Peter Luger Steak House,(718) 387-7400,11211,NY,Brooklyn,178 Broadway,0,0,0,Peter Luger Steak House,(718) 387-7400,11211,NY,Brooklyn,178 Broadway,0,0,0,1,1,,,,,,,,,
847,Humphry Slocombe Ice Cream,(415) 550-6971,94111,CA,San Francisco,1 Ferry Bldg,0,1,0,Humphry Slocombe,(415) 550-6971,94111,CA,San Francisco,Ferry Building,0,0,0,1,1,,,,,,,,,
336,Old Jerusalem Restaurant,(415) 642-5958,94110,CA,San Francisco,2976 Mission St,0,1,0,Old Jerusalem Restaurant,(415) 642-5958,94110,CA,San Francisco,2976 Mission District Street,0,1,0,1,1,,,,,,,,,
338,Cicchetti,(206) 859-4155,98102,WA,Seattle,121 E Boston St,0,1,1,Cicchetti,(206) 859-4155,98102,WA,Seattle,121 E Boston Street,0,0,1,1,1,,,,,,,,,
339,Homeslice,(312) 789-4600,60614,IL,Chicago,938 W Webster,1,1,1,Homeslice,(312) 789-4600,60614,IL,Chicago,938 W Webster Avenue,0,1,1,1,1,,,,,,,,,
342,Atera,(212) 226-1444,10013,NY,New York,77 Worth St,0,0,0,Atera,(212) 226-1444,10013,NY,New York,77 Worth Street,0,0,0,1,1,,,,,,,,,
343,Blue Ribbon Sushi,(212) 343-0404,10012,NY,New York,119 Sullivan St,0,1,0,Blue Ribbon Sushi,(212) 343-0404,10012,NY,New York,119 Sullivan Street,0,1,0,1,1,,,,,,,,,
881,Morimoto,(212) 989-8883,10011,NY,New York,88 10th Ave,0,0,0,Morimoto,(212) 989-8883,10011,NY,New York,88 10th Avenue,1,1,0,1,1,,,,,,,,,
864,Frascati,(415) 928-1406,94109,CA,San Francisco,1901 Hyde St,0,1,0,Frascati Ristorante,(415) 928-1406,94109,CA,San Francisco,1901 Hyde Street,0,0,0,1,1,,,,,,,,,
865,La Lanterna di Vittorio,(212) 529-5945,10012,NY,New York,129 MacDougal St,0,1,1,La Lanterna di Vittorio,(212) 529-5945,10012,NY,New York,129 Macdougal Street,0,0,1,1,1,,,,,,,,,
354,Juliana’s Pizza,(718) 596-6700,11201,NY,Brooklyn,19 Old Fulton St,0,1,1,Juliana's Pizza,(718) 596-6700,11201,NY,Brooklyn,19 Old Fulton Street,0,1,0,1,1,,,,,,,,,
867,Red Bamboo,(212) 260-1212,10012,NY,New York,140 W 4th St,1,1,0,Red Bamboo,(212) 260-1212,10012,NY,New York,140 W 4th Street,1,1,0,1,1,,,,,,,,,
358,Bite Café,(773) 395-2483,60622,IL,Chicago,1035 N Western Ave,0,1,0,Bite Cafe,(773) 395-2483,60622,IL,Chicago,1039 N Western Avenue,0,1,0,1,1,,,,,,,,,
360,Hendrickx Belgian Bread Crafter,(312) 649-6717,60611,IL,Chicago,100 E Walton St,0,1,1,Hendrickx Belgian Bread Crafter,(312) 649-6717,60611,IL,Chicago,1100 E Walton Street Walton Colonnade,0,1,1,1,1,,,,,,,,,
1084,Luzzo’s,(212) 473-7447,10003,NY,New York,211 1st Ave,1,1,0,Luzzo's,(212) 473-7447,10003,NY,New York,211-13 1st Avenue,1,1,0,1,1,,,,,,,,,
874,The Publican,(312) 733-9555,60607,IL,Chicago,837 W Fulton Market,0,0,1,The Publican,(312) 733-9555,60607,IL,Chicago,837 W Fulton Market,0,0,1,1,1,,,,,,,,,
364,DMK Burger Bar,(773) 360-8686,60657,IL,Chicago,2954 N Sheffield Ave,0,1,0,DMK Burger Bar,(773) 360-8686,60657,IL,Chicago,2954 N Sheffield Avenue,0,1,0,1,1,,,,,,,,,
878,Joe’s Pizza,(212) 366-1182,10014,NY,New York,7 Carmine St,1,1,0,Joe's Pizza,(212) 366-1182,10014,NY,New York,7 Carmine Street,1,1,0,1,1,,,,,,,,,
573,The Bad Apple,(773) 360-8406,60618,IL,Chicago,4300 N Lincoln Ave,0,1,1,The Bad Apple,(773) 360-8406,60618,IL,Chicago,4300 N Lincoln Avenue,0,1,1,1,1,,,,,,,,,
369,The Meatball Shop,(212) 982-8895,10002,NY,New York,84 Stanton St,1,1,1,The Meatball Shop,(212) 982-8895,10002,NY,New York,84 Stanton Street,0,0,1,1,1,,,,,,,,,
373,Pica Pica Arepa Kitchen,(628) 400-5744,94103,CA,San Francisco,401 Valencia St,1,1,0,Pica Pica Arepa Kitchen,(414) 400-5453,94103,CA,San Francisco,401 Valencia Street,1,1,0,1,1,,,,,,,,,
1090,Crisp,(773) 697-7610,60657,IL,Chicago,2940 N Broadway Ave,1,1,0,Crisp,(877) 693-8653,60657,IL,Chicago,2940 N Broadway Street,1,1,0,1,1,,,,,,,,,
376,ARAMI,(312) 243-1535,60622,IL,Chicago,1829 W Chicago Ave,1,1,0,Arami,(312) 243-1535,60622,IL,Chicago,1829 W. Chicago Avenue,1,1,0,1,1,,,,,,,,,
891,The Pasta Bowl,(773) 525-2695,60614,IL,Chicago,2434 N Clark St,1,1,0,Pasta Bowl,(773) 525-2695,60614,IL,Chicago,2434 N Clark Street,1,1,0,1,1,,,,,,,,,
893,KUSAKABE,(415) 757-0155,94111,CA,San Francisco,584 Washington St,0,0,0,Kusakabe,(415) 757-0155,94111,CA,San Francisco,584 Washington Street,0,0,0,1,1,,,,,,,,,
382,Boqueria,(212) 343-4255,10012,NY,New York,171 Spring St,1,1,0,Boqueria,(212) 343-4255,10012,NY,New York,171 Spring Street,0,1,0,1,1,,,,,,,,,
832,State Bird Provisions,(415) 795-1272,94115,CA,San Francisco,1529 Fillmore St,0,0,0,State Bird Provisions,(415) 795-1272,94115,CA,San Francisco,1529 Fillmore Street,0,1,0,1,1,,,,,,,,,
387,Ai Fiori,(212) 613-8660,10018,NY,New York,400 5th Ave,0,0,0,Ai Fiori,(212) 613-8660,10018,NY,New York,400 2nd Floor 5th Avenue,0,0,0,1,1,,,,,,,,,
1056,John’s Of Bleecker Street,(212) 243-1680,10014,NY,New York,278 Bleecker St,0,1,0,John's of Bleecker Street,(212) 243-1680,10014,NY,New York,278 Bleecker Street,0,1,0,1,1,,,,,,,,,
902,Pasta Palazzo,(773) 248-1400,60614,IL,Chicago,1966 N Halsted St,0,1,0,Pasta Palazzo,(773) 248-1400,60614,IL,Chicago,1966 N. Halsted Street,0,1,0,1,1,,,,,,,,,
391,Bar Del Corso,(206) 395-2069,98144,WA,Seattle,3057 Beacon Ave S,0,1,0,Bar del Corso,(206) 395-2069,98144,WA,Seattle,3057 Beacon Avenue South,0,1,1,1,1,,,,,,,,,
392,Barolo Ristorante,(206) 770-9000,98101,WA,Seattle,1940 Westlake Ave,0,1,1,Barolo Ristorante,(206) 770-9000,98101,WA,Seattle,1940 Westlake Avenue,0,1,1,1,1,,,,,,,,,
394,Café Orlin,(212) 777-1447,10003,NY,New York,41 St Marks Pl,0,1,1,Cafe Orlin,(212) 777-1447,10003,NY,New York,41 St Marks Place,0,1,1,1,1,,,,,,,,,
395,Doughnut Plant,(212) 505-3700,10002,NY,New York,379 Grand St,0,1,1,Doughnut Plant,(212) 505-3700,10002,NY,New York,379 Grand Street,0,1,0,1,1,,,,,,,,,
1053,Spiegel,(212) 228-2894,10009,NY,New York,26 1st Ave,0,1,0,Spiegel,(212) 228-2894,10009,NY,New York,26 1st Avenue,0,1,1,1,1,,,,,,,,,
909,Commonwealth,(415) 355-1500,94110,CA,San Francisco,2224 Mission St,0,0,0,Commonwealth,(415) 355-1500,94110,CA,San Francisco,2224 Mission District Street,0,0,0,1,1,,,,,,,,,
401,Osteria Via Stato,(312) 642-8450,60654,IL,Chicago,620 N State St,1,1,1,Pizzeria Via Stato,(312) 642-8450,60654,IL,Chicago,620 N State Street,1,1,1,1,1,,,,,,,,,
914,Cafe Reverie,(415) 242-0200,94117,CA,San Francisco,848 Cole St,0,1,1,Reverie Coffee Cafe,(415) 242-0200,94117,CA,San Francisco,848 Cole Street,0,1,1,1,1,,,,,,,,,
405,Blue Front Cafe,(415) 252-5917,94117,CA,San Francisco,1430 Haight St,0,1,0,Blue Front Cafe,(415) 252-5917,94117,CA,San Francisco,1430 Haight Street,0,1,0,1,1,,,,,,,,,
918,Thai Idea Vegetarian,(415) 440-8344,94109,CA,San Francisco,710 Polk St,0,1,0,Thai Idea Vegetarian,(415) 440-8344,94109,CA,San Francisco,710 Polk Street,0,1,0,1,1,,,,,,,,,
407,Bohemian House,(312) 955-0439,60654,IL,Chicago,11 W Illinois St,0,0,0,Bohemian House,(312) 955-0439,60654,IL,Chicago,11 W Illinois Street,0,1,0,1,1,,,,,,,,,
408,Plow,(415) 821-7569,94107,CA,San Francisco,1299 18th St,0,1,1,Plow,(415) 821-7569,94107,CA,San Francisco,1299 18th Street,0,1,1,1,1,,,,,,,,,
409,Kuma’s Corner,(773) 604-8769,60618,IL,Chicago,2900 W Belmont Ave,0,1,1,Kuma's Corner,(773) 604-8769,60618,IL,Chicago,2900 W Belmont Avenue,0,1,1,1,1,,,,,,,,,
924,Cha-An,(212) 228-8030,10003,NY,New York,230 E 9th St,0,1,0,Cha-An,(212) 228-8030,10003,NY,New York,230 E 9th Street,0,1,0,1,1,,,,,,,,,
866,b. Patisserie,(415) 440-1700,94115,CA,San Francisco,2821 California St,0,1,1,B. Patisserie,(415) 440-1700,94115,CA,San Francisco,2821 California Street,0,0,1,1,1,,,,,,,,,
415,The Mill,(415) 345-1953,94117,CA,San Francisco,736 Divisadero St,0,1,1,The Mill,(415) 252-0800,94117,CA,San Francisco,736 Divisadero Street,0,1,1,1,1,,,,,,,,,
930,Arizmendi Bakery,(415) 566-3117,94122,CA,San Francisco,1331 9th Ave,0,1,1,Arizmendi Bakery,(415) 566-3117,94122,CA,San Francisco,1331 9th Avenue,0,1,0,1,1,,,,,,,,,
419,Ruth’s Chris Steak House,(312) 321-2725,60654,IL,Chicago,431 N Dearborn St,0,1,0,Ruth's Chris Steak House,(312) 321-2725,60654,IL,Chicago,431 N Dearborn Street,0,1,0,1,1,,,,,,,,,
932,Rosamunde Sausage Grill,(415) 437-6851,94117,CA,San Francisco,545 Haight St,1,1,0,Rosamunde Sausage Grill,(415) 437-6851,94117,CA,San Francisco,545 Haight Street,0,0,0,1,1,,,,,,,,,
1094,The Little Owl,(212) 741-4695,10014,NY,New York,90 Bedford St,0,0,0,The Little Owl,(212) 741-4695,10014,NY,New York,90 Bedford Street,0,1,0,1,1,,,,,,,,,
423,Annisa,(212) 741-6699,10014,NY,New York,13 Barrow St,0,0,0,Annisa,(212) 741-6699,10014,NY,New York,13 Barrow Street,0,0,0,1,1,,,,,,,,,
425,List,(206) 441-1000,98121,WA,Seattle,2226 1st Ave,0,0,1,List,(206) 441-1000,98121,WA,Seattle,2226 1st Avenue,0,0,1,1,1,,,,,,,,,
1095,Seatown Seabar & Rotisserie,(206) 436-0390,98121,WA,Seattle,2010 Western Ave,0,1,1,Seatown Seabar & Rotisserie,(206) 436-0390,98121,WA,Seattle,2010 Western Avenue,0,1,1,1,1,,,,,,,,,
1037,The Alembic,(415) 666-0822,94117,CA,San Francisco,1725 Haight St,0,0,0,Alembic Bar,(415) 666-0822,94117,CA,San Francisco,1725 Haight Street,0,0,0,1,1,,,,,,,,,
943,Gracias Madre,(415) 683-1346,94110,CA,San Francisco,2211 Mission St,0,1,1,Gracias Madre,(415) 683-1346,94110,CA,San Francisco,2211 Mission District Street,0,1,1,1,1,,,,,,,,,
946,Little Goat Diner,(312) 888-3455,60607,IL,Chicago,820 W Randolph St,0,1,1,Little Goat Diner,(312) 888-3455,60607,IL,Chicago,820 W Randolph Street,0,1,1,1,1,,,,,,,,,
947,The Mermaid Inn,(212) 674-5870,10003,NY,New York,96 2nd Ave,0,0,1,The Mermaid Inn,(212) 674-5870,10003,NY,New York,96 2nd Avenue,0,0,1,1,1,,,,,,,,,
436,Serious Pie & Biscuit,(206) 436-0050,98109,WA,Seattle,401 Westlake Ave N,0,1,0,Serious Pie,(206) 436-0050,98109,WA,Seattle,401 Westlake Avenue N,0,1,0,1,1,,,,,,,,,
438,Tilikum Place Cafe,(206) 282-4830,98121,WA,Seattle,407 Cedar St,0,1,0,Tilikum Place Cafe,(206) 282-4830,98121,WA,Seattle,407 Cedar Street,0,1,0,1,1,,,,,,,,,
953,Johny’s Luncheonette,(212) 243-6230,10001,NY,New York,124 W 25th St,1,1,0,Johny's Grill & Luncheonette,(212) 243-6230,10001,NY,New York,124 W 25th Street,1,1,0,1,1,,,,,,,,,
442,Seven Hills,(415) 775-1550,94109,CA,San Francisco,1550 Hyde St,0,0,0,Seven Hills,(415) 775-1550,94109,CA,San Francisco,1550 Hyde Street,0,0,0,1,1,,,,,,,,,
927,Burma Superstar,(415) 387-2147,94118,CA,San Francisco,309 Clement St,0,1,0,Burma Superstar,(415) 387-2147,94118,CA,San Francisco,309 Clement Street,0,1,0,1,1,,,,,,,,,
962,Palisade,(206) 285-1000,98199,WA,Seattle,2601 W Marina Pl,0,0,1,Palisade,(206) 285-1000,98199,WA,Seattle,2601 West Marina Place,0,1,1,1,1,,,,,,,,,
964,Locanda Verde,(212) 925-3797,10013,NY,New York,377 Greenwich St,0,0,1,Locanda Verde,(212) 925-3797,10013,NY,New York,377 Greenwich Street,0,1,1,1,1,,,,,,,,,
454,Westville Chelsea,(212) 924-2223,10011,NY,New York,246 W 18th St,1,1,1,Westville,(212) 924-2223 (212) 924-2201,10011,NY,New York,246 W 18th Street,1,1,1,1,1,,,,,,,,,
967,Blue Bottle Coffee Co,(510) 653-3394,94103,CA,San Francisco,66 Mint St,0,1,1,Blue Bottle,(415) 495-3394,94103,CA,San Francisco,66 Mint Street,0,1,0,1,1,,,,,,,,,
456,Mana Food Bar,(773) 342-1742,60622,IL,Chicago,1742 W Division St,1,1,1,Mana Food Bar,(773) 342-1742,60622,IL,Chicago,1742 W. Division Street,1,1,1,1,1,,,,,,,,,
457,Sotto Mare,(415) 398-3181,94133,CA,San Francisco,552 Green St,0,1,1,Sotto Mare,(415) 398-3181,94133,CA,San Francisco,552 Green Street,0,1,1,1,1,,,,,,,,,
972,North Pond,(773) 477-5845,60614,IL,Chicago,2610 N Cannon Dr,0,0,0,North Pond,(773) 477-5845,60614,IL,Chicago,2610 N. Cannon Drive,0,1,0,1,1,,,,,,,,,
974,Brooklyn Bagel & Coffee Company,(212) 924-2824,10001,NY,New York,286 8th Ave,1,1,0,Brooklyn Bagel & Coffee Company,(212) 924-2824,10001,NY,New York,286 8th Avenue,1,1,0,1,1,,,,,,,,,
463,Kitchen Story,(415) 525-4905,94114,CA,San Francisco,3499 16th St,1,1,1,Kitchen Story,(415) 525-4905,94114,CA,San Francisco,3499 16th Street,1,1,1,1,1,,,,,,,,,
976,La Grenouille,(212) 752-1495,10022,NY,New York,3 E 52nd St,0,0,0,La Grenouille,(212) 752-1495,10022,NY,New York,3 E 52nd Street,0,1,0,1,1,,,,,,,,,
465,Il Terrazzo Carmine,(206) 467-7797,98104,WA,Seattle,411 1st Ave S,0,1,1,Il Terrazzo Carmine,(206) 467-7797,98104,WA,Seattle,411 1st Avenue South,0,1,1,1,1,,,,,,,,,
979,Sons & Daughters,(415) 391-8311,94108,CA,San Francisco,708 Bush St,0,0,0,Sons & Daughters,(415) 391-8311,94108,CA,San Francisco,708 Bush Street,0,0,0,1,1,,,,,,,,,
980,Universal Cafe,(415) 821-4608,94110,CA,San Francisco,2814 19th St,0,1,1,Universal Cafe,(415) 821-4608,94110,CA,San Francisco,2814 19th Street,0,1,1,1,1,,,,,,,,,
851,Handlebar,(773) 384-9546,60647,IL,Chicago,2311 W North Ave,0,1,1,Handlebar,(773) 384-9546,60647,IL,Chicago,2311 W North Avenue,0,1,1,1,1,,,,,,,,,
988,Degustation,(212) 979-1012,10003,NY,New York,239 E 5th St,0,0,0,Degustation,(212) 979-1012,10003,NY,New York,239 E 5th Street,0,0,0,1,1,,,,,,,,,
800,La Carta de Oaxaca,(206) 782-8722,98107,WA,Seattle,5431 Ballard Ave NW,0,1,1,La Carta de Oaxaca,(206) 782-8722,98107,WA,Seattle,5431 Ballard Avenue NW,0,1,1,1,1,,,,,,,,,
992,Doughnut Plant,(212) 505-3700,10011,NY,New York,220 W 23rd St,0,1,0,Doughnut Plant,(212) 675-9100,10011,NY,New York,220 Between 7th & 8th Avenue,0,1,0,1,1,,,,,,,,,
848,San Tung,(415) 242-0828,94122,CA,San Francisco,1031 Irving St,0,1,0,San Tung,(415) 242-0828,94122,CA,San Francisco,1031 Irving Street,1,1,0,1,1,,,,,,,,,
482,Aloha Eats,(773) 935-6828,60614,IL,Chicago,2534 N Clark St,1,1,0,Aloha Eats,(773) 935-6828,60614,IL,Chicago,2534 N. Clark Street,1,1,0,1,1,,,,,,,,,
483,Saigon Sandwich,(415) 474-5698,94102,CA,San Francisco,560 Larkin St,0,1,0,Saigon Sandwich,(415) 474-5698,94102,CA,San Francisco,560 Larkin Street,0,1,0,1,1,,,,,,,,,
996,Giano Restaurant,(212) 673-7200,10009,NY,New York,126 E 7th St,1,1,1,Giano,(212) 673-7200,10009,NY,New York,126 East 7th Street,0,1,1,1,1,,,,,,,,,
487,Hugo’s Frog Bar & Fish House,(312) 640-0999,60611,IL,Chicago,1024 N Rush St,0,1,1,Hugo's Frog Bar & Fish House,(312) 640-0999,60611,IL,Chicago,1024 N Rush Street,0,1,1,1,1,,,,,,,,,
1001,Artopolis,(312) 559-9000,60661,IL,Chicago,306 S Halsted St,0,1,0,Artopolis,(312) 559-9000,60661,IL,Chicago,306 S Halsted Street,0,1,0,1,1,,,,,,,,,
490,El Farolito,(415) 824-7877,94110,CA,San Francisco,2779 Mission St,0,1,0,El Farolito,(415) 824-7877,94110,CA,San Francisco,2779 Mission District Street,0,1,0,1,1,,,,,,,,,
491,El Farolito,(415) 641-0758,94110,CA,San Francisco,2950 24th St,0,1,0,El Farolito,(415) 824-7877,94110,CA,San Francisco,2779 Mission District Street,0,1,0,0,1,,,,,,,,,
1004,Mike’s Noodle House,(206) 389-7099,98104,WA,Seattle,418 Maynard Ave S,0,1,0,Mike's Noodle House,(206) 389-7099,98104,WA,Seattle,418 Maynard Avenue S,0,1,0,1,1,,,,,,,,,
494,Piece Brewery and Pizzeria,(773) 772-4422,60622,IL,Chicago,1927 W North Ave,1,1,0,Piece,(773) 772-4422,60622,IL,Chicago,1927 W North Avenue,1,1,0,1,1,,,,,,,,,
499,Duke’s Chowder House - Lake Union,(206) 382-9963,98109,WA,Seattle,901 Fairview Ave N,0,1,1,Duke's Chowder House,(206) 382-9963,98109,WA,Seattle,901 Fairview Avenue North,0,1,1,1,1,,,,,,,,,
501,Monsoon Seattle,(206) 325-2111,98112,WA,Seattle,615 19th Ave E,0,1,1,Monsoon,(206) 325-2111,98112,WA,Seattle,615 19th Avenue E,1,1,1,1,1,,,,,,,,,
1014,Keens Steakhouse,(212) 947-3636,10018,NY,New York,72 W 36th St,0,1,0,Keens Steakhouse,(212) 947-3636,10018,NY,New York,72 W 36th Street,0,1,0,1,1,,,,,,,,,
1015,Bandera Restaurant,(312) 644-3524,60611,IL,Chicago,535 N Michigan Ave,0,1,0,Bandera,(312) 644-3524,60611,IL,Chicago,535 N Michigan Avenue,0,1,0,1,1,,,,,,,,,
504,Bobtail Ice Cream Company,(773) 880-7372,60657,IL,Chicago,2951 N Broadway St,0,1,1,Bobtail Ice Cream Company,(773) 880-7372,60657,IL,Chicago,2951 North Broadway Street,0,1,1,1,1,,,,,,,,,
506,Malatesta Trattoria,(212) 741-1207,10014,NY,New York,649 Washington St,0,1,1,Malatesta Trattoria,(212) 741-1207,10014,NY,New York,649 Washington Street,0,0,1,1,1,,,,,,,,,
